{"type": "FeatureCollection", "features": [ {"type": "Feature", "properties": {"norad_id": 28649, "name": "IRS-P5 (CARTOSAT-1)", "group": "resource", "lat": 70.356385363871, "lon": -139.81231437981359, "alt_km": 589.539511739772, "timestamp": "2025-12-18T04:58:34.237083+00:00", "meta": {"OBJECT_NAME": "IRS-P5 (CARTOSAT-1)", "OBJECT_ID": "2005-017A", "EPOCH": "2025-12-17T15:36:08.940672", "MEAN_MOTION": 14.90421465, "ECCENTRICITY": 9.219e-05, "INCLINATION": 97.5489, "RA_OF_ASC_NODE": 17.8458, "ARG_OF_PERICENTER": 45.8305, "MEAN_ANOMALY": 314.2989, "EPHEMERIS_TYPE": 0, "CLASSIFICATION_TYPE": "U", "NORAD_CAT_ID": 28649, "ELEMENT_SET_NO": 999, "REV_AT_EPOCH": 11677, "BSTAR": 0.00014028648, "MEAN_MOTION_DOT": 1.315e-05, "MEAN_MOTION_DDOT": 0}, "tle": {"line1": "1 28649U 05017A   25351.65010348  .00001315  00000+0  14029-3 0  9993", "line2": "2 28649  97.5489  17.8458 0000921  45.8305 314.2989 14.90421465116777"}}, "geometry": {"type": "Point", "coordinates": [-139.81231437981359, 70.356385363871]}}, {"type": "Feature", "properties": {"norad_id": 28893, "name": "SINAH 1", "group": "resource", "lat": -57.14918284314302, "lon": 133.78144523547732, "alt_km": 698.4439915085459, "timestamp": "2025-12-18T04:58:34.237094+00:00", "meta": {"OBJECT_NAME": "SINAH 1", "OBJECT_ID": "2005-043D", "EPOCH": "2025-12-17T19:23:58.758144", "MEAN_MOTION": 14.63967963, "ECCENTRICITY": 0.00155506, "INCLINATION": 98.2606, "RA_OF_ASC_NODE": 120.3792, "ARG_OF_PERICENTER": 122.1088, "MEAN_ANOMALY": 238.1626, "EPHEMERIS_TYPE": 0, "CLASSIFICATION_TYPE": "U", "NORAD_CAT_ID": 28893, "ELEMENT_SET_NO": 999, "REV_AT_EPOCH": 7398, "BSTAR": 7.6862675e-05, "MEAN_MOTION_DOT": 3.54e-06, "MEAN_MOTION_DDOT": 0}, "tle": {"line1": "1 28893U 05043D   25351.80831896  .00000354  00000+0  76863-4 0  9996", "line2": "2 28893  98.2606 120.3792 0015550 122.1088 238.1626 14.63967963 73984"}}, "geometry": {"type": "Point", "coordinates": [133.78144523547732, -57.14918284314302]}}, {"type": "Feature", "properties": {"norad_id": 29079, "name": "EROS B", "group": "resource", "lat": -38.07375926097256, "lon": -76.75192470119592, "alt_km": 365.6085930517693, "timestamp": "2025-12-18T04:58:34.237105+00:00", "meta": {"OBJECT_NAME": "EROS B", "OBJECT_ID": "2006-014A", "EPOCH": "2025-12-17T21:55:46.551936", "MEAN_MOTION": 15.69881644, "ECCENTRICITY": 0.00031654, "INCLINATION": 97.3462, "RA_OF_ASC_NODE": 108.7404, "ARG_OF_PERICENTER": 311.7245, "MEAN_ANOMALY": 48.3746, "EPHEMERIS_TYPE": 0, "CLASSIFICATION_TYPE": "U", "NORAD_CAT_ID": 29079, "ELEMENT_SET_NO": 999, "REV_AT_EPOCH": 9161, "BSTAR": 0.0011573055, "MEAN_MOTION_DOT": 0.00140175, "MEAN_MOTION_DDOT": 0}, "tle": {"line1": "1 29079U 06014A   25351.91373324  .00140175  00000+0  11573-2 0  9992", "line2": "2 29079  97.3462 108.7404 0003165 311.7245  48.3746 15.69881644 91613"}}, "geometry": {"type": "Point", "coordinates": [-76.75192470119592, -38.07375926097256]}}, {"type": "Feature", "properties": {"norad_id": 29228, "name": "RESURS-DK 1", "group": "resource", "lat": 66.22898937331144, "lon": -148.38104407109208, "alt_km": 526.6551900881868, "timestamp": "2025-12-18T04:58:34.237116+00:00", "meta": {"OBJECT_NAME": "RESURS-DK 1", "OBJECT_ID": "2006-021A", "EPOCH": "2025-12-17T17:24:33.145632", "MEAN_MOTION": 15.12189204, "ECCENTRICITY": 0.0006923, "INCLINATION": 69.9337, "RA_OF_ASC_NODE": 88.9538, "ARG_OF_PERICENTER": 255.5284, "MEAN_ANOMALY": 104.5114, "EPHEMERIS_TYPE": 0, "CLASSIFICATION_TYPE": "U", "NORAD_CAT_ID": 29228, "ELEMENT_SET_NO": 999, "REV_AT_EPOCH": 7513, "BSTAR": 0.00013571917, "MEAN_MOTION_DOT": 2.242e-05, "MEAN_MOTION_DDOT": 0}, "tle": {"line1": "1 29228U 06021A   25351.72538363  .00002242  00000+0  13572-3 0  9995", "line2": "2 29228  69.9337  88.9538 0006923 255.5284 104.5114 15.12189204 75139"}}, "geometry": {"type": "Point", "coordinates": [-148.38104407109208, 66.22898937331144]}}, {"type": "Feature", "properties": {"norad_id": 29268, "name": "ARIRANG-2 (KOMPSAT-2)", "group": "resource", "lat": -37.225913459479706, "lon": -5.5846362991108345, "alt_km": 682.3275668979895, "timestamp": "2025-12-18T04:58:34.237127+00:00", "meta": {"OBJECT_NAME": "ARIRANG-2 (KOMPSAT-2)", "OBJECT_ID": "2006-031A", "EPOCH": "2025-12-17T23:46:05.744064", "MEAN_MOTION": 14.64498502, "ECCENTRICITY": 0.00132663, "INCLINATION": 97.8258, "RA_OF_ASC_NODE": 180.2069, "ARG_OF_PERICENTER": 291.2319, "MEAN_ANOMALY": 223.0896, "EPHEMERIS_TYPE": 0, "CLASSIFICATION_TYPE": "U", "NORAD_CAT_ID": 29268, "ELEMENT_SET_NO": 999, "REV_AT_EPOCH": 3495, "BSTAR": 5.9501654e-05, "MEAN_MOTION_DOT": 2.71e-06, "MEAN_MOTION_DDOT": 0}, "tle": {"line1": "1 29268U 06031A   25351.99034426  .00000271  00000+0  59502-4 0  9994", "line2": "2 29268  97.8258 180.2069 0013266 291.2319 223.0896 14.64498502 34953"}}, "geometry": {"type": "Point", "coordinates": [-5.5846362991108345, -37.225913459479706]}}, {"type": "Feature", "properties": {"norad_id": 29709, "name": "LAPAN-TUBSAT", "group": "resource", "lat": -28.55853724374053, "lon": 158.01670827021502, "alt_km": 625.6136376988552, "timestamp": "2025-12-18T04:58:34.237137+00:00", "meta": {"OBJECT_NAME": "LAPAN-TUBSAT", "OBJECT_ID": "2007-001A", "EPOCH": "2025-12-17T23:11:27.893184", "MEAN_MOTION": 14.85678949, "ECCENTRICITY": 0.00135482, "INCLINATION": 98.1256, "RA_OF_ASC_NODE": 342.2307, "ARG_OF_PERICENTER": 58.5879, "MEAN_ANOMALY": 301.6658, "EPHEMERIS_TYPE": 0, "CLASSIFICATION_TYPE": "U", "NORAD_CAT_ID": 29709, "ELEMENT_SET_NO": 999, "REV_AT_EPOCH": 2424, "BSTAR": 5.2791224e-05, "MEAN_MOTION_DOT": 4.01e-06, "MEAN_MOTION_DDOT": 0}, "tle": {"line1": "1 29709U 07001A   25351.96629506  .00000401  00000+0  52791-4 0  9996", "line2": "2 29709  98.1256 342.2307 0013548  58.5879 301.6658 14.85678949 24246"}}, "geometry": {"type": "Point", "coordinates": [158.01670827021502, -28.55853724374053]}}, {"type": "Feature", "properties": {"norad_id": 31113, "name": "HAIYANG-1B", "group": "resource", "lat": 77.9075421470918, "lon": -160.58301161810326, "alt_km": 778.7955940836009, "timestamp": "2025-12-18T04:58:34.237148+00:00", "meta": {"OBJECT_NAME": "HAIYANG-1B", "OBJECT_ID": "2007-010A", "EPOCH": "2025-12-17T21:48:16.917696", "MEAN_MOTION": 14.3096685, "ECCENTRICITY": 0.00140197, "INCLINATION": 98.3317, "RA_OF_ASC_NODE": 335.9732, "ARG_OF_PERICENTER": 23.3851, "MEAN_ANOMALY": 336.7967, "EPHEMERIS_TYPE": 0, "CLASSIFICATION_TYPE": "U", "NORAD_CAT_ID": 31113, "ELEMENT_SET_NO": 999, "REV_AT_EPOCH": 97470, "BSTAR": 5.3781568e-05, "MEAN_MOTION_DOT": 1e-06, "MEAN_MOTION_DDOT": 0}, "tle": {"line1": "1 31113U 07010A   25351.90852914  .00000100  00000+0  53782-4 0  9990", "line2": "2 31113  98.3317 335.9732 0014019  23.3851 336.7967 14.30966850974701"}}, "geometry": {"type": "Point", "coordinates": [-160.58301161810326, 77.9075421470918]}}, {"type": "Feature", "properties": {"norad_id": 31598, "name": "COSMO-SKYMED 1", "group": "resource", "lat": 3.203462878371307, "lon": 177.19768998486728, "alt_km": 582.3546227123161, "timestamp": "2025-12-18T04:58:34.237158+00:00", "meta": {"OBJECT_NAME": "COSMO-SKYMED 1", "OBJECT_ID": "2007-023A", "EPOCH": "2025-12-17T22:32:23.457696", "MEAN_MOTION": 14.95805864, "ECCENTRICITY": 0.00015612, "INCLINATION": 97.8835, "RA_OF_ASC_NODE": 177.3722, "ARG_OF_PERICENTER": 87.5282, "MEAN_ANOMALY": 272.6117, "EPHEMERIS_TYPE": 0, "CLASSIFICATION_TYPE": "U", "NORAD_CAT_ID": 31598, "ELEMENT_SET_NO": 999, "REV_AT_EPOCH": 268, "BSTAR": 0.00033271996, "MEAN_MOTION_DOT": 3.654e-05, "MEAN_MOTION_DDOT": 0}, "tle": {"line1": "1 31598U 07023A   25351.93916039  .00003654  00000+0  33272-3 0  9991", "line2": "2 31598  97.8835 177.3722 0001561  87.5282 272.6117 14.95805864  2684"}}, "geometry": {"type": "Point", "coordinates": [177.19768998486728, 3.203462878371307]}}, {"type": "Feature", "properties": {"norad_id": 31698, "name": "TERRASAR-X", "group": "resource", "lat": 60.82121806730906, "lon": -168.94711357102173, "alt_km": 501.41775369644984, "timestamp": "2025-12-18T04:58:34.237169+00:00", "meta": {"OBJECT_NAME": "TERRASAR-X", "OBJECT_ID": "2007-026A", "EPOCH": "2025-12-17T14:13:48.329472", "MEAN_MOTION": 15.19149756, "ECCENTRICITY": 0.00018426, "INCLINATION": 97.4455, "RA_OF_ASC_NODE": 356.9029, "ARG_OF_PERICENTER": 91.3746, "MEAN_ANOMALY": 268.77, "EPHEMERIS_TYPE": 0, "CLASSIFICATION_TYPE": "U", "NORAD_CAT_ID": 31698, "ELEMENT_SET_NO": 999, "REV_AT_EPOCH": 2565, "BSTAR": 4.5889707e-05, "MEAN_MOTION_DOT": 8.97e-06, "MEAN_MOTION_DDOT": 0}, "tle": {"line1": "1 31698U 07026A   25351.59292048  .00000897  00000+0  45890-4 0  9990", "line2": "2 31698  97.4455 356.9029 0001842  91.3746 268.7700 15.19149756 25658"}}, "geometry": {"type": "Point", "coordinates": [-168.94711357102173, 60.82121806730906]}}, {"type": "Feature", "properties": {"norad_id": 32060, "name": "WORLDVIEW-1 (WV-1)", "group": "resource", "lat": -48.88034200307132, "lon": -78.93169467579328, "alt_km": 498.6195736785603, "timestamp": "2025-12-18T04:58:34.237179+00:00", "meta": {"OBJECT_NAME": "WORLDVIEW-1 (WV-1)", "OBJECT_ID": "2007-041A", "EPOCH": "2025-12-17T21:40:24.061728", "MEAN_MOTION": 15.24773613, "ECCENTRICITY": 8.956e-05, "INCLINATION": 97.3839, "RA_OF_ASC_NODE": 109.3115, "ARG_OF_PERICENTER": 116.7003, "MEAN_ANOMALY": 243.4326, "EPHEMERIS_TYPE": 0, "CLASSIFICATION_TYPE": "U", "NORAD_CAT_ID": 32060, "ELEMENT_SET_NO": 999, "REV_AT_EPOCH": 1526, "BSTAR": 0.00027610113, "MEAN_MOTION_DOT": 6.773e-05, "MEAN_MOTION_DDOT": 0}, "tle": {"line1": "1 32060U 07041A   25351.90305627  .00006773  00000+0  27610-3 0  9992", "line2": "2 32060  97.3839 109.3115 0000895 116.7003 243.4326 15.24773613 15269"}}, "geometry": {"type": "Point", "coordinates": [-78.93169467579328, -48.88034200307132]}}]}